HAWK-8C                 
1 59449U 24066H   26068.47383543  .00002400  00000+0  21518-3 0  9993
2 59449  45.6068  72.8656 0003935 260.2975  99.7462 14.98770227104860
STARLINK-34441          
1 64430U 25129U   26068.46940835  .00001152  00000+0  10433-3 0  9999
2 64430  70.0024  75.0399 0003197 278.1591  81.9206 14.98328651 41253
